start=new Date('2021-10-17T00:00:00.000Z').valueOf();
sats=[{"MEAN_MOTION_DOT":"0.00000192","PERIAPSIS":"546.131","APOAPSIS":"548.327","ARG_OF_PERICENTER":"62.2137","MEAN_ELEMENT_THEORY":"SGP4","TLE_LINE1":"1 44772U 19074BM  21289.20747155  .00000192  00000-0  31763-4 0  9994","COUNTRY_CODE":"US","MEAN_MOTION":"15.06394957","LAUNCH_DATE":"2019-11-11","MEAN_ANOMALY":"297.9012","OBJECT_TYPE":"PAYLOAD","REF_FRAME":"TEME","CLASSIFICATION_TYPE":"U","ELEMENT_SET_NO":"999","ECCENTRICITY":"0.00015850","TLE_LINE2":"2 44772  53.0547 213.9121 0001585  62.2137 297.9012 15.06394957106487","GP_ID":"187323391","EPOCH":"2021-10-16T04:58:45.541920","SEMIMAJOR_AXIS":"6925.364","FILE":"3166151","MEAN_MOTION_DDOT":"0.0000000000000","NORAD_CAT_ID":"44772","REV_AT_EPOCH":"10648","EPHEMERIS_TYPE":"0","RCS_SIZE":"LARGE","TIME_SYSTEM":"UTC","DECAY_DATE":null,"PERIOD":"95.592","OBJECT_NAME":"STARLINK-1068","INCLINATION":"53.0547","RA_OF_ASC_NODE":"213.9121","CENTER_NAME":"EARTH","SITE":"AFETR","OBJECT_ID":"2019-074BM","BSTAR":"0.00003176300000"},{"DECAY_DATE":null,"PERIOD":"95.592","OBJECT_NAME":"STARLINK-1073","RA_OF_ASC_NODE":"353.2500","INCLINATION":"53.0555","SITE":"AFETR","CENTER_NAME":"EARTH","OBJECT_ID":"2020-001A","BSTAR":"0.00002849200000","SEMIMAJOR_AXIS":"6925.359","FILE":"3166610","MEAN_MOTION_DDOT":"0.0000000000000","REV_AT_EPOCH":"9788","NORAD_CAT_ID":"44914","EPHEMERIS_TYPE":"0","RCS_SIZE":"LARGE","TIME_SYSTEM":"UTC","LAUNCH_DATE":"2020-01-07","REF_FRAME":"TEME","MEAN_ANOMALY":"263.2371","OBJECT_TYPE":"PAYLOAD","CLASSIFICATION_TYPE":"U","ELEMENT_SET_NO":"999","ECCENTRICITY":"0.00012930","EPOCH":"2021-10-16T08:33:42.575328","TLE_LINE2":"2 44914  53.0555 353.2500 0001293  96.8765 263.2371 15.06396468 97885","GP_ID":"187354926","MEAN_MOTION_DOT":"0.00000143","PERIAPSIS":"546.329","APOAPSIS":"548.120","MEAN_ELEMENT_THEORY":"SGP4","ARG_OF_PERICENTER":"96.8765","TLE_LINE1":"1 44914U 20001A   21289.35674277  .00000143  00000-0  28492-4 0  9995","COUNTRY_CODE":"US","MEAN_MOTION":"15.06396468"},{"BSTAR":"0.00014434000000","SITE":"AFETR","CENTER_NAME":"EARTH","OBJECT_ID":"2020-001B","PERIOD":"95.593","OBJECT_NAME":"STARLINK-1084","RA_OF_ASC_NODE":"353.4161","INCLINATION":"53.0542","DECAY_DATE":null,"TIME_SYSTEM":"UTC","EPHEMERIS_TYPE":"0","RCS_SIZE":"LARGE","MEAN_MOTION_DDOT":"0.0000000000000","REV_AT_EPOCH":"9788","NORAD_CAT_ID":"44915","SEMIMAJOR_AXIS":"6925.411","FILE":"3166610","ECCENTRICITY":"0.00013050","EPOCH":"2021-10-16T07:40:39.658944","GP_ID":"187354678","TLE_LINE2":"2 44915  53.0542 353.4161 0001305  99.3957 260.7180 15.06379530 97883","CLASSIFICATION_TYPE":"U","ELEMENT_SET_NO":"999","REF_FRAME":"TEME","MEAN_ANOMALY":"260.7180","OBJECT_TYPE":"PAYLOAD","LAUNCH_DATE":"2020-01-07","TLE_LINE1":"1 44915U 20001B   21289.31990346  .00001868  00000-0  14434-3 0  9995","COUNTRY_CODE":"US","MEAN_MOTION":"15.06379530","APOAPSIS":"548.180","MEAN_ELEMENT_THEORY":"SGP4","ARG_OF_PERICENTER":"99.3957","PERIAPSIS":"546.373","MEAN_MOTION_DOT":"0.00001868"},{"TLE_LINE2":"2 44916  53.0531 318.2288 0002935  20.0810 340.0322 15.71489375 98398","GP_ID":"187333298","EPOCH":"2021-10-16T12:34:06.430656","ECCENTRICITY":"0.00029350","ELEMENT_SET_NO":"999","CLASSIFICATION_TYPE":"U","MEAN_ANOMALY":"340.0322","OBJECT_TYPE":"PAYLOAD","REF_FRAME":"TEME","LAUNCH_DATE":"2020-01-07","MEAN_MOTION":"15.71489375","TLE_LINE1":"1 44916U 20001C   21289.52368554  .00012638  00000-0  10131-3 0  9996","COUNTRY_CODE":"US","ARG_OF_PERICENTER":"20.0810","MEAN_ELEMENT_THEORY":"SGP4","APOAPSIS":"356.618","PERIAPSIS":"352.666","MEAN_MOTION_DOT":"0.00012638","BSTAR":"0.00010131000000","OBJECT_ID":"2020-001C","SITE":"AFETR","CENTER_NAME":"EARTH","INCLINATION":"53.0531","RA_OF_ASC_NODE":"318.2288","OBJECT_NAME":"STARLINK-1097","PERIOD":"91.633","DECAY_DATE":null,"TIME_SYSTEM":"UTC","EPHEMERIS_TYPE":"0","RCS_SIZE":"LARGE","NORAD_CAT_ID":"44916","REV_AT_EPOCH":"9839","MEAN_MOTION_DDOT":"0.0000000000000","FILE":"3166474","SEMIMAJOR_AXIS":"6732.777"},{"PERIOD":"95.593","OBJECT_NAME":"STARLINK-1098","RA_OF_ASC_NODE":"352.2100","INCLINATION":"53.0549","DECAY_DATE":null,"BSTAR":"0.00009510200000","CENTER_NAME":"EARTH","SITE":"AFETR","OBJECT_ID":"2020-001D","MEAN_MOTION_DDOT":"0.0000000000000","REV_AT_EPOCH":"9792","NORAD_CAT_ID":"44917","SEMIMAJOR_AXIS":"6925.402","FILE":"3166520","TIME_SYSTEM":"UTC","EPHEMERIS_TYPE":"0","RCS_SIZE":"LARGE","REF_FRAME":"TEME","MEAN_ANOMALY":"255.7799","OBJECT_TYPE":"PAYLOAD","LAUNCH_DATE":"2020-01-07","ECCENTRICITY":"0.00011710","EPOCH":"2021-10-16T14:08:07.563552","GP_ID":"187333278","TLE_LINE2":"2 44917  53.0549 352.2100 0001171 104.3320 255.7799 15.06382504 97924","ELEMENT_SET_NO":"999","CLASSIFICATION_TYPE":"U","PERIAPSIS":"546.456","MEAN_MOTION_DOT":"0.00001135","TLE_LINE1":"1 44917U 20001D   21289.58897643  .00001135  00000-0  95102-4 0  9991","COUNTRY_CODE":"US","MEAN_MOTION":"15.06382504","APOAPSIS":"548.078","MEAN_ELEMENT_THEORY":"SGP4","ARG_OF_PERICENTER":"104.3320"},{"LAUNCH_DATE":"2020-01-07","MEAN_ANOMALY":"266.1194","OBJECT_TYPE":"PAYLOAD","REF_FRAME":"TEME","CLASSIFICATION_TYPE":"U","ELEMENT_SET_NO":"999","GP_ID":"187354428","TLE_LINE2":"2 44918  53.0562 353.3490 0001201  93.9932 266.1194 15.06383080 98623","EPOCH":"2021-10-16T08:01:52.931424","ECCENTRICITY":"0.00012010","MEAN_MOTION_DOT":"0.00001491","PERIAPSIS":"546.434","ARG_OF_PERICENTER":"93.9932","MEAN_ELEMENT_THEORY":"SGP4","APOAPSIS":"548.097","MEAN_MOTION":"15.06383080","TLE_LINE1":"1 44918U 20001E   21289.33464041  .00001491  00000-0  11904-3 0  9999","COUNTRY_CODE":"US","DECAY_DATE":null,"INCLINATION":"53.0562","RA_OF_ASC_NODE":"353.3490","OBJECT_NAME":"STARLINK-1099","PERIOD":"95.593","OBJECT_ID":"2020-001E","CENTER_NAME":"EARTH","SITE":"AFETR","BSTAR":"0.00011904000000","FILE":"3166610","SEMIMAJOR_AXIS":"6925.400","NORAD_CAT_ID":"44918","REV_AT_EPOCH":"9862","MEAN_MOTION_DDOT":"0.0000000000000","RCS_SIZE":"LARGE","EPHEMERIS_TYPE":"0","TIME_SYSTEM":"UTC"},{"NORAD_CAT_ID":"44919","REV_AT_EPOCH":"9835","MEAN_MOTION_DDOT":"0.0000000000000","FILE":"3166520","SEMIMAJOR_AXIS":"6732.782","TIME_SYSTEM":"UTC","RCS_SIZE":"LARGE","EPHEMERIS_TYPE":"0","INCLINATION":"53.0526","RA_OF_ASC_NODE":"321.2637","OBJECT_NAME":"STARLINK-1101","PERIOD":"91.633","DECAY_DATE":null,"BSTAR":"-0.00005625200000","OBJECT_ID":"2020-001F","SITE":"AFETR","CENTER_NAME":"EARTH","PERIAPSIS":"352.613","MEAN_MOTION_DOT":"-0.00007944","MEAN_MOTION":"15.71487360","TLE_LINE1":"1 44919U 20001F   21289.57072872 -.00007944  00000-0 -56252-4 0  9990","COUNTRY_CODE":"US","MEAN_ELEMENT_THEORY":"SGP4","ARG_OF_PERICENTER":"14.5497","APOAPSIS":"356.682","MEAN_ANOMALY":"345.5607","OBJECT_TYPE":"PAYLOAD","REF_FRAME":"TEME","LAUNCH_DATE":"2020-01-07","TLE_LINE2":"2 44919  53.0526 321.2637 0003022  14.5497 345.5607 15.71487360 98358","GP_ID":"187333272","EPOCH":"2021-10-16T13:41:50.961408","ECCENTRICITY":"0.00030220","ELEMENT_SET_NO":"999","CLASSIFICATION_TYPE":"U"},{"ELEMENT_SET_NO":"999","CLASSIFICATION_TYPE":"U","EPOCH":"2021-10-16T08:23:06.675648","GP_ID":"187355429","TLE_LINE2":"2 44920  53.0555 353.2759 0001238  87.9632 272.1499 15.06393923 97884","ECCENTRICITY":"0.00012380","LAUNCH_DATE":"2020-01-07","REF_FRAME":"TEME","OBJECT_TYPE":"PAYLOAD","MEAN_ANOMALY":"272.1499","ARG_OF_PERICENTER":"87.9632","MEAN_ELEMENT_THEORY":"SGP4","APOAPSIS":"548.090","MEAN_MOTION":"15.06393923","TLE_LINE1":"1 44920U 20001G   21289.34938282  .00003329  00000-0  24233-3 0  9997","COUNTRY_CODE":"US","MEAN_MOTION_DOT":"0.00003329","PERIAPSIS":"546.375","OBJECT_ID":"2020-001G","CENTER_NAME":"EARTH","SITE":"AFETR","BSTAR":"0.00024233000000","DECAY_DATE":null,"RA_OF_ASC_NODE":"353.2759","INCLINATION":"53.0555","OBJECT_NAME":"STARLINK-1102","PERIOD":"95.593","RCS_SIZE":"LARGE","EPHEMERIS_TYPE":"0","TIME_SYSTEM":"UTC","FILE":"3166610","SEMIMAJOR_AXIS":"6925.367","REV_AT_EPOCH":"9788","NORAD_CAT_ID":"44920","MEAN_MOTION_DDOT":"0.0000000000000"},{"OBJECT_NAME":"STARLINK-1103","PERIOD":"95.644","RA_OF_ASC_NODE":"353.8804","INCLINATION":"53.0010","DECAY_DATE":null,"BSTAR":"0.00012261000000","SITE":"AFETR","CENTER_NAME":"EARTH","OBJECT_ID":"2020-001H","MEAN_MOTION_DDOT":"0.0000000000000","REV_AT_EPOCH":"9784","NORAD_CAT_ID":"44921","SEMIMAJOR_AXIS":"6927.877","FILE":"3166610","TIME_SYSTEM":"UTC","EPHEMERIS_TYPE":"0","RCS_SIZE":"LARGE","REF_FRAME":"TEME","OBJECT_TYPE":"PAYLOAD","MEAN_ANOMALY":"266.0709","LAUNCH_DATE":"2020-01-07","ECCENTRICITY":"0.00013190","EPOCH":"2021-10-16T05:10:34.262112","GP_ID":"187356179","TLE_LINE2":"2 44921  53.0010 353.8804 0001319  94.0430 266.0709 15.05575465 97847","ELEMENT_SET_NO":"999","CLASSIFICATION_TYPE":"U","PERIAPSIS":"548.828","MEAN_MOTION_DOT":"0.00001507","TLE_LINE1":"1 44921U 20001H   21289.21567433  .00001507  00000-0  12261-3 0  9994","COUNTRY_CODE":"US","MEAN_MOTION":"15.05575465","APOAPSIS":"550.656","MEAN_ELEMENT_THEORY":"SGP4","ARG_OF_PERICENTER":"94.0430"},{"PERIAPSIS":"546.345","MEAN_MOTION_DOT":"0.00001912","TLE_LINE1":"1 44922U 20001J   21289.53736297  .00001912  00000-0  14724-3 0  9992","COUNTRY_CODE":"US","MEAN_MOTION":"15.06390020","APOAPSIS":"548.143","MEAN_ELEMENT_THEORY":"SGP4","ARG_OF_PERICENTER":"90.8579","MEAN_ANOMALY":"269.2559","OBJECT_TYPE":"PAYLOAD","REF_FRAME":"TEME","LAUNCH_DATE":"2020-01-07","ECCENTRICITY":"0.00012980","TLE_LINE2":"2 44922  53.0544 352.4373 0001298  90.8579 269.2559 15.06390020 97919","GP_ID":"187333341","EPOCH":"2021-10-16T12:53:48.160608","CLASSIFICATION_TYPE":"U","ELEMENT_SET_NO":"999","MEAN_MOTION_DDOT":"0.0000000000000","NORAD_CAT_ID":"44922","REV_AT_EPOCH":"9791","SEMIMAJOR_AXIS":"6925.379","FILE":"3166476","TIME_SYSTEM":"UTC","EPHEMERIS_TYPE":"0","RCS_SIZE":"LARGE","PERIOD":"95.593","OBJECT_NAME":"STARLINK-1104","INCLINATION":"53.0544","RA_OF_ASC_NODE":"352.4373","DECAY_DATE":null,"BSTAR":"0.00014724000000","CENTER_NAME":"EARTH","SITE":"AFETR","OBJECT_ID":"2020-001J"}];
